[{"OBJECT_NAME":"AFR-1","OBJECT_ID":"2023-084AJ","EPOCH":"2026-03-09T23:02:07.499328","MEAN_MOTION":15.27543824,"ECCENTRICITY":0.00099838,"INCLINATION":97.6099,"RA_OF_ASC_NODE":203.4313,"ARG_OF_PERICENTER":334.9676,"MEAN_ANOMALY":25.1077,"EPHEMERIS_TYPE":0,"CLASSIFICATION_TYPE":"U","NORAD_CAT_ID":56964,"ELEMENT_SET_NO":999,"REV_AT_EPOCH":15207,"BSTAR":0.00024843733,"MEAN_MOTION_DOT":6.624e-5,"MEAN_MOTION_DDOT":0},{"OBJECT_NAME":"STARLINK-36534","OBJECT_ID":"2026-012D","EPOCH":"2026-03-09T01:28:30.092160","MEAN_MOTION":15.27601101,"ECCENTRICITY":0.00016472,"INCLINATION":43.0005,"RA_OF_ASC_NODE":318.1353,"ARG_OF_PERICENTER":269.2852,"MEAN_ANOMALY":90.7811,"EPHEMERIS_TYPE":0,"CLASSIFICATION_TYPE":"U","NORAD_CAT_ID":67496,"ELEMENT_SET_NO":999,"REV_AT_EPOCH":766,"BSTAR":0.0010242747,"MEAN_MOTION_DOT":0.00028049,"MEAN_MOTION_DDOT":0}]
